{"type": "FeatureCollection", "features": [ {"type": "Feature", "properties": {"norad_id": 66517, "name": "STARLINK-35937", "group": "last-30-days", "lat": -42.34905205359443, "lon": -41.83232974858732, "alt_km": 416.4449002135052, "timestamp": "2025-12-15T19:00:44.076079+00:00", "meta": {"OBJECT_NAME": "STARLINK-35937", "OBJECT_ID": "2025-265B", "EPOCH": "2025-12-14T10:53:57.739200", "MEAN_MOTION": 15.50608535, "ECCENTRICITY": 0.00015667, "INCLINATION": 43.0011, "RA_OF_ASC_NODE": 43.9908, "ARG_OF_PERICENTER": 272.2041, "MEAN_ANOMALY": 87.8639, "EPHEMERIS_TYPE": 0, "CLASSIFICATION_TYPE": "U", "NORAD_CAT_ID": 66517, "ELEMENT_SET_NO": 999, "REV_AT_EPOCH": 402, "BSTAR": 0.0017485191, "MEAN_MOTION_DOT": 0.00103714, "MEAN_MOTION_DDOT": 0}, "tle": {"line1": "1 66517U 25265B   25348.45414050  .00103714  00000+0  17485-2 0  9992", "line2": "2 66517  43.0011  43.9908 0001566 272.2041  87.8639 15.50608535  4020"}}, "geometry": {"type": "Point", "coordinates": [-41.83232974858732, -42.34905205359443]}}, {"type": "Feature", "properties": {"norad_id": 66518, "name": "STARLINK-35962", "group": "last-30-days", "lat": -42.34508831954379, "lon": -41.79159860851411, "alt_km": 416.3337352697554, "timestamp": "2025-12-15T19:00:44.076091+00:00", "meta": {"OBJECT_NAME": "STARLINK-35962", "OBJECT_ID": "2025-265C", "EPOCH": "2025-12-14T10:53:57.808320", "MEAN_MOTION": 15.50609594, "ECCENTRICITY": 0.00017695, "INCLINATION": 43.0014, "RA_OF_ASC_NODE": 43.9914, "ARG_OF_PERICENTER": 290.7607, "MEAN_ANOMALY": 69.3063, "EPHEMERIS_TYPE": 0, "CLASSIFICATION_TYPE": "U", "NORAD_CAT_ID": 66518, "ELEMENT_SET_NO": 999, "REV_AT_EPOCH": 402, "BSTAR": 0.0018445082, "MEAN_MOTION_DOT": 0.00109513, "MEAN_MOTION_DDOT": 0}, "tle": {"line1": "1 66518U 25265C   25348.45414130  .00109513  00000+0  18445-2 0  9992", "line2": "2 66518  43.0014  43.9914 0001769 290.7607  69.3063 15.50609594  4021"}}, "geometry": {"type": "Point", "coordinates": [-41.79159860851411, -42.34508831954379]}}, {"type": "Feature", "properties": {"norad_id": 66519, "name": "STARLINK-35931", "group": "last-30-days", "lat": -41.774198435461265, "lon": -37.30504016451434, "alt_km": 416.10026512423156, "timestamp": "2025-12-15T19:00:44.076101+00:00", "meta": {"OBJECT_NAME": "STARLINK-35931", "OBJECT_ID": "2025-265D", "EPOCH": "2025-12-14T10:52:58.169856", "MEAN_MOTION": 15.50575413, "ECCENTRICITY": 0.00026869, "INCLINATION": 43.0006, "RA_OF_ASC_NODE": 43.985, "ARG_OF_PERICENTER": 285.698, "MEAN_ANOMALY": 74.3584, "EPHEMERIS_TYPE": 0, "CLASSIFICATION_TYPE": "U", "NORAD_CAT_ID": 66519, "ELEMENT_SET_NO": 999, "REV_AT_EPOCH": 402, "BSTAR": 0.0010807878, "MEAN_MOTION_DOT": 0.00063576, "MEAN_MOTION_DDOT": 0}, "tle": {"line1": "1 66519U 25265D   25348.45345104  .00063576  00000+0  10808-2 0  9990", "line2": "2 66519  43.0006  43.9850 0002686 285.6980  74.3584 15.50575413  4024"}}, "geometry": {"type": "Point", "coordinates": [-37.30504016451434, -41.774198435461265]}}, {"type": "Feature", "properties": {"norad_id": 66520, "name": "STARLINK-35952", "group": "last-30-days", "lat": 1.261538074005009, "lon": -144.94897969730502, "alt_km": 444.03853559286017, "timestamp": "2025-12-15T19:00:44.076135+00:00", "meta": {"OBJECT_NAME": "STARLINK-35952", "OBJECT_ID": "2025-265E", "EPOCH": "2025-12-14T20:00:06.000192", "MEAN_MOTION": 15.40709393, "ECCENTRICITY": 0.00010518, "INCLINATION": 43.0006, "RA_OF_ASC_NODE": 41.9314, "ARG_OF_PERICENTER": 290.4563, "MEAN_ANOMALY": 323.4477, "EPHEMERIS_TYPE": 0, "CLASSIFICATION_TYPE": "U", "NORAD_CAT_ID": 66520, "ELEMENT_SET_NO": 999, "REV_AT_EPOCH": 533, "BSTAR": -0.00029260669, "MEAN_MOTION_DOT": -0.0001251, "MEAN_MOTION_DDOT": 0}, "tle": {"line1": "1 66520U 25265E   25348.83340278 -.00012510  00000+0 -29261-3 0  9999", "line2": "2 66520  43.0006  41.9314 0001051 290.4563 323.4477 15.40709393  5334"}}, "geometry": {"type": "Point", "coordinates": [-144.94897969730502, 1.261538074005009]}}, {"type": "Feature", "properties": {"norad_id": 66521, "name": "STARLINK-35915", "group": "last-30-days", "lat": -40.819845867763256, "lon": -31.83484965150661, "alt_km": 415.7795612482314, "timestamp": "2025-12-15T19:00:44.076147+00:00", "meta": {"OBJECT_NAME": "STARLINK-35915", "OBJECT_ID": "2025-265F", "EPOCH": "2025-12-14T04:40:58.207296", "MEAN_MOTION": 15.50527356, "ECCENTRICITY": 0.0002411, "INCLINATION": 42.9978, "RA_OF_ASC_NODE": 45.4873, "ARG_OF_PERICENTER": 258.1159, "MEAN_ANOMALY": 101.9431, "EPHEMERIS_TYPE": 0, "CLASSIFICATION_TYPE": "U", "NORAD_CAT_ID": 66521, "ELEMENT_SET_NO": 999, "REV_AT_EPOCH": 398, "BSTAR": 0.0021069432, "MEAN_MOTION_DOT": 0.0012503, "MEAN_MOTION_DDOT": 0}, "tle": {"line1": "1 66521U 25265F   25348.19511814  .00125030  00000+0  21069-2 0  9992", "line2": "2 66521  42.9978  45.4873 0002411 258.1159 101.9431 15.50527356  3989"}}, "geometry": {"type": "Point", "coordinates": [-31.83484965150661, -40.819845867763256]}}, {"type": "Feature", "properties": {"norad_id": 66522, "name": "STARLINK-35946", "group": "last-30-days", "lat": -40.29339060348662, "lon": -29.34025366976507, "alt_km": 415.5199854716939, "timestamp": "2025-12-15T19:00:44.076157+00:00", "meta": {"OBJECT_NAME": "STARLINK-35946", "OBJECT_ID": "2025-265G", "EPOCH": "2025-12-14T10:51:29.196000", "MEAN_MOTION": 15.50626153, "ECCENTRICITY": 0.00028211, "INCLINATION": 43.0027, "RA_OF_ASC_NODE": 43.9758, "ARG_OF_PERICENTER": 281.3094, "MEAN_ANOMALY": 78.7449, "EPHEMERIS_TYPE": 0, "CLASSIFICATION_TYPE": "U", "NORAD_CAT_ID": 66522, "ELEMENT_SET_NO": 999, "REV_AT_EPOCH": 402, "BSTAR": 0.0016089794, "MEAN_MOTION_DOT": 0.00095374, "MEAN_MOTION_DDOT": 0}, "tle": {"line1": "1 66522U 25265G   25348.45242125  .00095374  00000+0  16090-2 0  9993", "line2": "2 66522  43.0027  43.9758 0002821 281.3094  78.7449 15.50626153  4024"}}, "geometry": {"type": "Point", "coordinates": [-29.34025366976507, -40.29339060348662]}}, {"type": "Feature", "properties": {"norad_id": 66523, "name": "STARLINK-35969", "group": "last-30-days", "lat": -39.73449785250405, "lon": -27.000560855878227, "alt_km": 415.50775120600065, "timestamp": "2025-12-15T19:00:44.076167+00:00", "meta": {"OBJECT_NAME": "STARLINK-35969", "OBJECT_ID": "2025-265H", "EPOCH": "2025-12-14T10:50:59.850240", "MEAN_MOTION": 15.50627883, "ECCENTRICITY": 0.0002989, "INCLINATION": 42.9993, "RA_OF_ASC_NODE": 43.9738, "ARG_OF_PERICENTER": 300.971, "MEAN_ANOMALY": 59.0856, "EPHEMERIS_TYPE": 0, "CLASSIFICATION_TYPE": "U", "NORAD_CAT_ID": 66523, "ELEMENT_SET_NO": 999, "REV_AT_EPOCH": 402, "BSTAR": 0.0015629331, "MEAN_MOTION_DOT": 0.0009261, "MEAN_MOTION_DDOT": 0}, "tle": {"line1": "1 66523U 25265H   25348.45208160  .00092610  00000+0  15629-2 0  9992", "line2": "2 66523  42.9993  43.9738 0002989 300.9710  59.0856 15.50627883  4026"}}, "geometry": {"type": "Point", "coordinates": [-27.000560855878227, -39.73449785250405]}}, {"type": "Feature", "properties": {"norad_id": 66524, "name": "STARLINK-35687", "group": "last-30-days", "lat": 17.877665254878643, "lon": -163.7866915815977, "alt_km": 441.90825613886136, "timestamp": "2025-12-15T19:00:44.076177+00:00", "meta": {"OBJECT_NAME": "STARLINK-35687", "OBJECT_ID": "2025-265J", "EPOCH": "2025-12-14T20:00:06.000192", "MEAN_MOTION": 15.40705545, "ECCENTRICITY": 0.00015885, "INCLINATION": 43.0008, "RA_OF_ASC_NODE": 41.9909, "ARG_OF_PERICENTER": 271.734, "MEAN_ANOMALY": 317.2967, "EPHEMERIS_TYPE": 0, "CLASSIFICATION_TYPE": "U", "NORAD_CAT_ID": 66524, "ELEMENT_SET_NO": 999, "REV_AT_EPOCH": 533, "BSTAR": -0.00035899158, "MEAN_MOTION_DOT": -0.00015272, "MEAN_MOTION_DDOT": 0}, "tle": {"line1": "1 66524U 25265J   25348.83340278 -.00015272  00000+0 -35899-3 0  9995", "line2": "2 66524  43.0008  41.9909 0001588 271.7340 317.2967 15.40705545  5330"}}, "geometry": {"type": "Point", "coordinates": [-163.7866915815977, 17.877665254878643]}}, {"type": "Feature", "properties": {"norad_id": 66525, "name": "STARLINK-35975", "group": "last-30-days", "lat": -15.46187589583936, "lon": -126.38811428095656, "alt_km": 445.79313740360976, "timestamp": "2025-12-15T19:00:44.076187+00:00", "meta": {"OBJECT_NAME": "STARLINK-35975", "OBJECT_ID": "2025-265K", "EPOCH": "2025-12-14T20:00:06.000192", "MEAN_MOTION": 15.40673521, "ECCENTRICITY": 0.00013615, "INCLINATION": 43.0005, "RA_OF_ASC_NODE": 41.8706, "ARG_OF_PERICENTER": 295.7177, "MEAN_ANOMALY": 343.1423, "EPHEMERIS_TYPE": 0, "CLASSIFICATION_TYPE": "U", "NORAD_CAT_ID": 66525, "ELEMENT_SET_NO": 999, "REV_AT_EPOCH": 533, "BSTAR": 5.1828877e-05, "MEAN_MOTION_DOT": 1.86e-05, "MEAN_MOTION_DDOT": 0}, "tle": {"line1": "1 66525U 25265K   25348.83340278  .00001860  00000+0  51829-4 0  9994", "line2": "2 66525  43.0005  41.8706 0001361 295.7177 343.1423 15.40673521  5338"}}, "geometry": {"type": "Point", "coordinates": [-126.38811428095656, -15.46187589583936]}}, {"type": "Feature", "properties": {"norad_id": 66526, "name": "STARLINK-35932", "group": "last-30-days", "lat": -37.62302508958133, "lon": -19.687031248593605, "alt_km": 416.24558937009624, "timestamp": "2025-12-15T19:00:44.076202+00:00", "meta": {"OBJECT_NAME": "STARLINK-35932", "OBJECT_ID": "2025-265L", "EPOCH": "2025-12-14T10:49:31.784448", "MEAN_MOTION": 15.50621032, "ECCENTRICITY": 0.00017397, "INCLINATION": 43.0001, "RA_OF_ASC_NODE": 43.9653, "ARG_OF_PERICENTER": 227.2965, "MEAN_ANOMALY": 132.7749, "EPHEMERIS_TYPE": 0, "CLASSIFICATION_TYPE": "U", "NORAD_CAT_ID": 66526, "ELEMENT_SET_NO": 999, "REV_AT_EPOCH": 402, "BSTAR": 0.0026007534, "MEAN_MOTION_DOT": 0.00155535, "MEAN_MOTION_DDOT": 0}, "tle": {"line1": "1 66526U 25265L   25348.45106232  .00155535  00000+0  26008-2 0  9991", "line2": "2 66526  43.0001  43.9653 0001739 227.2965 132.7749 15.50621032  4022"}}, "geometry": {"type": "Point", "coordinates": [-19.687031248593605, -37.62302508958133]}}]}